STARLINK-2720           
1 48653U 21044R   26068.81877654 -.00000252  00000+0  36232-5 0  9995
2 48653  53.1589 113.2604 0001337  89.4472 270.6682 15.30186760263845
TOMORROW-S2             
1 60485U 24149T   26068.75188364  .00008133  00000+0  27683-3 0  9990
2 60485  97.3857 150.0385 0001648 234.3331 125.7757 15.30674935 86869
